{"type": "FeatureCollection", "features": [ {"type": "Feature", "properties": {"norad_id": 66687, "name": "TRANSPORTER-15X", "group": "last-30-days", "lat": 32.88999209063563, "lon": 66.26972439928487, "alt_km": 508.2123210609034, "timestamp": "2025-12-25T14:48:23.569185+00:00", "meta": {"OBJECT_NAME": "TRANSPORTER-15X", "OBJECT_ID": "2025-276X", "EPOCH": "2025-12-25T06:44:39.277824", "MEAN_MOTION": 15.1676553, "ECCENTRICITY": 0.00080971, "INCLINATION": 97.4384, "RA_OF_ASC_NODE": 70.7868, "ARG_OF_PERICENTER": 46.2401, "MEAN_ANOMALY": 313.9501, "EPHEMERIS_TYPE": 0, "CLASSIFICATION_TYPE": "U", "NORAD_CAT_ID": 66687, "ELEMENT_SET_NO": 999, "REV_AT_EPOCH": 402, "BSTAR": 0.00069396831, "MEAN_MOTION_DOT": 0.0001358, "MEAN_MOTION_DDOT": 0}, "tle": {"line1": "1 66687U 25276X   25359.28101016  .00013580  00000+0  69397-3 0  9991", "line2": "2 66687  97.4384  70.7868 0008097  46.2401 313.9501 15.16765530  4024"}}, "geometry": {"type": "Point", "coordinates": [66.26972439928487, 32.88999209063563]}}, {"type": "Feature", "properties": {"norad_id": 66688, "name": "TRANSPORTER-15Y", "group": "last-30-days", "lat": 69.70214890692284, "lon": 50.45137975405774, "alt_km": 510.30907501388265, "timestamp": "2025-12-25T14:48:23.569194+00:00", "meta": {"OBJECT_NAME": "TRANSPORTER-15Y", "OBJECT_ID": "2025-276Y", "EPOCH": "2025-12-25T03:24:48.818016", "MEAN_MOTION": 15.17112958, "ECCENTRICITY": 0.00037676, "INCLINATION": 97.4427, "RA_OF_ASC_NODE": 70.683, "ARG_OF_PERICENTER": 237.2759, "MEAN_ANOMALY": 122.8112, "EPHEMERIS_TYPE": 0, "CLASSIFICATION_TYPE": "U", "NORAD_CAT_ID": 66688, "ELEMENT_SET_NO": 999, "REV_AT_EPOCH": 400, "BSTAR": 0.00050885375, "MEAN_MOTION_DOT": 0.00010028, "MEAN_MOTION_DDOT": 0}, "tle": {"line1": "1 66688U 25276Y   25359.14223169  .00010028  00000+0  50885-3 0  9997", "line2": "2 66688  97.4427  70.6830 0003767 237.2759 122.8112 15.17112958  4002"}}, "geometry": {"type": "Point", "coordinates": [50.45137975405774, 69.70214890692284]}}, {"type": "Feature", "properties": {"norad_id": 66689, "name": "TRANSPORTER-15Z", "group": "last-30-days", "lat": -40.35084863520461, "lon": -115.16839945492347, "alt_km": 447.91271540650087, "timestamp": "2025-12-25T14:48:23.569204+00:00", "meta": {"OBJECT_NAME": "TRANSPORTER-15Z", "OBJECT_ID": "2025-276Z", "EPOCH": "2025-12-22T21:27:46.425312", "MEAN_MOTION": 15.23073772, "ECCENTRICITY": 0.00272271, "INCLINATION": 97.4409, "RA_OF_ASC_NODE": 68.4858, "ARG_OF_PERICENTER": 260.8557, "MEAN_ANOMALY": 98.9599, "EPHEMERIS_TYPE": 0, "CLASSIFICATION_TYPE": "U", "NORAD_CAT_ID": 66689, "ELEMENT_SET_NO": 999, "REV_AT_EPOCH": 366, "BSTAR": 0.086131248, "MEAN_MOTION_DOT": 0.02294864, "MEAN_MOTION_DDOT": 0}, "tle": {"line1": "1 66689U 25276Z   25356.89428733  .02294864  00000+0  86131-1 0  9996", "line2": "2 66689  97.4409  68.4858 0027227 260.8557  98.9599 15.23073772  3663"}}, "geometry": {"type": "Point", "coordinates": [-115.16839945492347, -40.35084863520461]}}, {"type": "Feature", "properties": {"norad_id": 66690, "name": "TRANSPORTER-15AA", "group": "last-30-days", "lat": 69.16933187626563, "lon": 51.051367574664546, "alt_km": 510.3974387635035, "timestamp": "2025-12-25T14:48:23.569213+00:00", "meta": {"OBJECT_NAME": "TRANSPORTER-15AA", "OBJECT_ID": "2025-276AA", "EPOCH": "2025-12-25T03:24:57.136608", "MEAN_MOTION": 15.1708537, "ECCENTRICITY": 0.00036945, "INCLINATION": 97.439, "RA_OF_ASC_NODE": 70.6704, "ARG_OF_PERICENTER": 236.9066, "MEAN_ANOMALY": 123.1813, "EPHEMERIS_TYPE": 0, "CLASSIFICATION_TYPE": "U", "NORAD_CAT_ID": 66690, "ELEMENT_SET_NO": 999, "REV_AT_EPOCH": 400, "BSTAR": 0.00038258974, "MEAN_MOTION_DOT": 7.515e-05, "MEAN_MOTION_DDOT": 0}, "tle": {"line1": "1 66690U 25276AA  25359.14232797  .00007515  00000+0  38259-3 0  9995", "line2": "2 66690  97.4390  70.6704 0003694 236.9066 123.1813 15.17085370  4009"}}, "geometry": {"type": "Point", "coordinates": [51.051367574664546, 69.16933187626563]}}, {"type": "Feature", "properties": {"norad_id": 66691, "name": "TRANSPORTER-15AB", "group": "last-30-days", "lat": 80.40511064621555, "lon": 20.509336385999543, "alt_km": 508.76657902022725, "timestamp": "2025-12-25T14:48:23.569223+00:00", "meta": {"OBJECT_NAME": "TRANSPORTER-15AB", "OBJECT_ID": "2025-276AB", "EPOCH": "2025-12-25T04:56:29.495616", "MEAN_MOTION": 15.17347302, "ECCENTRICITY": 0.00037854, "INCLINATION": 97.4414, "RA_OF_ASC_NODE": 70.7461, "ARG_OF_PERICENTER": 238.5101, "MEAN_ANOMALY": 121.5763, "EPHEMERIS_TYPE": 0, "CLASSIFICATION_TYPE": "U", "NORAD_CAT_ID": 66691, "ELEMENT_SET_NO": 999, "REV_AT_EPOCH": 401, "BSTAR": 0.00063101216, "MEAN_MOTION_DOT": 0.0001254, "MEAN_MOTION_DDOT": 0}, "tle": {"line1": "1 66691U 25276AB  25359.20589694  .00012540  00000+0  63101-3 0  9992", "line2": "2 66691  97.4414  70.7461 0003785 238.5101 121.5763 15.17347302  4010"}}, "geometry": {"type": "Point", "coordinates": [20.509336385999543, 80.40511064621555]}}, {"type": "Feature", "properties": {"norad_id": 66692, "name": "TRANSPORTER-15AC", "group": "last-30-days", "lat": 75.93138611538967, "lon": -77.40146205768835, "alt_km": 507.4666875292469, "timestamp": "2025-12-25T14:48:23.569232+00:00", "meta": {"OBJECT_NAME": "TRANSPORTER-15AC", "OBJECT_ID": "2025-276AC", "EPOCH": "2025-12-25T04:51:46.971072", "MEAN_MOTION": 15.17434141, "ECCENTRICITY": 0.00017788, "INCLINATION": 97.4415, "RA_OF_ASC_NODE": 70.7541, "ARG_OF_PERICENTER": 253.086, "MEAN_ANOMALY": 107.0178, "EPHEMERIS_TYPE": 0, "CLASSIFICATION_TYPE": "U", "NORAD_CAT_ID": 66692, "ELEMENT_SET_NO": 999, "REV_AT_EPOCH": 401, "BSTAR": 0.00035532127, "MEAN_MOTION_DOT": 7.044e-05, "MEAN_MOTION_DDOT": 0}, "tle": {"line1": "1 66692U 25276AC  25359.20262698  .00007044  00000+0  35532-3 0  9995", "line2": "2 66692  97.4415  70.7541 0001778 253.0860 107.0178 15.17434141  4012"}}, "geometry": {"type": "Point", "coordinates": [-77.40146205768835, 75.93138611538967]}}, {"type": "Feature", "properties": {"norad_id": 66693, "name": "TRANSPORTER-15AD", "group": "last-30-days", "lat": 74.32388683199808, "lon": -81.11956424129329, "alt_km": 507.7984348090022, "timestamp": "2025-12-25T14:48:23.569241+00:00", "meta": {"OBJECT_NAME": "TRANSPORTER-15AD", "OBJECT_ID": "2025-276AD", "EPOCH": "2025-12-24T20:56:40.467840", "MEAN_MOTION": 15.17671154, "ECCENTRICITY": 0.00032419, "INCLINATION": 97.4369, "RA_OF_ASC_NODE": 70.41, "ARG_OF_PERICENTER": 264.5717, "MEAN_ANOMALY": 95.5147, "EPHEMERIS_TYPE": 0, "CLASSIFICATION_TYPE": "U", "NORAD_CAT_ID": 66693, "ELEMENT_SET_NO": 999, "REV_AT_EPOCH": 396, "BSTAR": 0.00094155416, "MEAN_MOTION_DOT": 0.00018934, "MEAN_MOTION_DDOT": 0}, "tle": {"line1": "1 66693U 25276AD  25358.87269060  .00018934  00000+0  94155-3 0  9994", "line2": "2 66693  97.4369  70.4100 0003241 264.5717  95.5147 15.17671154  3961"}}, "geometry": {"type": "Point", "coordinates": [-81.11956424129329, 74.32388683199808]}}, {"type": "Feature", "properties": {"norad_id": 66694, "name": "YAM-9", "group": "last-30-days", "lat": 70.56973404337558, "lon": -87.09227204047326, "alt_km": 511.1974890504516, "timestamp": "2025-12-25T14:48:23.569250+00:00", "meta": {"OBJECT_NAME": "YAM-9", "OBJECT_ID": "2025-276AE", "EPOCH": "2025-12-25T04:49:26.896800", "MEAN_MOTION": 15.15930781, "ECCENTRICITY": 0.00048545, "INCLINATION": 97.4417, "RA_OF_ASC_NODE": 70.7513, "ARG_OF_PERICENTER": 149.8803, "MEAN_ANOMALY": 210.271, "EPHEMERIS_TYPE": 0, "CLASSIFICATION_TYPE": "U", "NORAD_CAT_ID": 66694, "ELEMENT_SET_NO": 999, "REV_AT_EPOCH": 401, "BSTAR": -0.051286624, "MEAN_MOTION_DOT": -0.00910974, "MEAN_MOTION_DDOT": 0}, "tle": {"line1": "1 66694U 25276AE  25359.20100575 -.00910974  00000+0 -51287-1 0  9992", "line2": "2 66694  97.4417  70.7513 0004854 149.8803 210.2710 15.15930781  4010"}}, "geometry": {"type": "Point", "coordinates": [-87.09227204047326, 70.56973404337558]}}, {"type": "Feature", "properties": {"norad_id": 66695, "name": "IRIDE FM1", "group": "last-30-days", "lat": 2.3559111405860897, "lon": -108.50887720563745, "alt_km": 512.8000062814372, "timestamp": "2025-12-25T14:48:23.569258+00:00", "meta": {"OBJECT_NAME": "IRIDE FM1", "OBJECT_ID": "2025-276AF", "EPOCH": "2025-12-25T02:57:19.369440", "MEAN_MOTION": 15.18308505, "ECCENTRICITY": 0.00017616, "INCLINATION": 97.4382, "RA_OF_ASC_NODE": 70.6976, "ARG_OF_PERICENTER": 136.1061, "MEAN_ANOMALY": 224.0314, "EPHEMERIS_TYPE": 0, "CLASSIFICATION_TYPE": "U", "NORAD_CAT_ID": 66695, "ELEMENT_SET_NO": 999, "REV_AT_EPOCH": 400, "BSTAR": 0.00063960491, "MEAN_MOTION_DOT": 0.00013067, "MEAN_MOTION_DDOT": 0}, "tle": {"line1": "1 66695U 25276AF  25359.12314085  .00013067  00000+0  63960-3 0  9995", "line2": "2 66695  97.4382  70.6976 0001761 136.1061 224.0314 15.18308505  4001"}}, "geometry": {"type": "Point", "coordinates": [-108.50887720563745, 2.3559111405860897]}}, {"type": "Feature", "properties": {"norad_id": 66696, "name": "IRIDE FM2", "group": "last-30-days", "lat": 78.9948274129016, "lon": -66.64273969840832, "alt_km": 508.44292803991993, "timestamp": "2025-12-25T14:48:23.569267+00:00", "meta": {"OBJECT_NAME": "IRIDE FM2", "OBJECT_ID": "2025-276AG", "EPOCH": "2025-12-25T04:52:48.623520", "MEAN_MOTION": 15.17467498, "ECCENTRICITY": 0.00035119, "INCLINATION": 97.4391, "RA_OF_ASC_NODE": 70.7391, "ARG_OF_PERICENTER": 296.1613, "MEAN_ANOMALY": 63.9259, "EPHEMERIS_TYPE": 0, "CLASSIFICATION_TYPE": "U", "NORAD_CAT_ID": 66696, "ELEMENT_SET_NO": 999, "REV_AT_EPOCH": 401, "BSTAR": 0.00087942687, "MEAN_MOTION_DOT": 0.00017574, "MEAN_MOTION_DDOT": 0}, "tle": {"line1": "1 66696U 25276AG  25359.20334055  .00017574  00000+0  87943-3 0  9998", "line2": "2 66696  97.4391  70.7391 0003511 296.1613  63.9259 15.17467498  4014"}}, "geometry": {"type": "Point", "coordinates": [-66.64273969840832, 78.9948274129016]}}]}